STARLINK-31851          
1 59844U 24097K   26068.00227620 -.00000482  00000+0 -80125-5 0  9999
2 59844  42.9994 278.0740 0001288 263.3021  96.7684 15.27574121101819
FLOCK 4G-36             
1 62675U 25009BU  26068.70726311  .00013573  00000+0  51122-3 0  9993
2 62675  97.4053 151.0513 0003474 324.2456  35.8550 15.27209548 63701
